NORAD_CAT_ID,OBJECT_NAME,OBJECT_TYPE,EPOCH,MEAN_MOTION,ECCENTRICITY,INCLINATION,RA_OF_ASC_NODE,ARG_OF_PERICENTER,MEAN_ANOMALY,BSTAR,MEAN_MOTION_DOT,MEAN_MOTION_DDOT,TLE_LINE0,TLE_LINE1,TLE_LINE2,SEMIMAJOR_AXIS,PERIOD,APOGEE,PERIGEE,DECAYED
53978.0,STARLINK-5148,PAYLOAD,2023-06-25 04:29:55,15.0883679,0.0001225,53.2165,336.5673,85.9491,274.1641,1.7147e-05,-1.5e-07,0.0,0 STARLINK-5148,1 53978U 22125Q   23176.18744532 -.00000015  00000-0  17147-4 0  9998,2 53978  53.2165 336.5673 0001225  85.9491 274.1641 15.08836790 40236,6917.89,95.438,540.603,538.908,0.0
53978.0,STARLINK-5148,PAYLOAD,2023-06-25 21:59:09,15.08849395,0.0001113,53.2182,333.2983,86.809,273.3029,0.00018943,2.729e-05,0.0,0 STARLINK-5148,1 53978U 22125Q   23176.91607838  .00002729  00000-0  18943-3 0  9993,2 53978  53.2182 333.2983 0001113  86.8090 273.3029 15.08849395 40342,6917.852,95.437,540.487,538.947,0.0
53978.0,STARLINK-5148,PAYLOAD,2023-06-26 17:03:47,15.08840558,0.0001017,53.2178,329.7297,87.9291,272.1818,6.1725e-05,6.95e-06,0.0,0 STARLINK-5148,1 53978U 22125Q   23177.71096456  .00000695  00000-0  61725-4 0  9997,2 53978  53.2178 329.7297 0001017  87.9291 272.1818 15.08840558 40461,6917.879,95.438,540.447,539.04,0.0
53978.0,STARLINK-5148,PAYLOAD,2023-06-28 02:26:53,15.08840547,9.48e-05,53.2179,323.4869,93.7931,266.3169,8.1254e-05,1.006e-05,0.0,0 STARLINK-5148,1 53978U 22125Q   23179.10200614  .00001006  00000-0  81254-4 0  9991,2 53978  53.2179 323.4869 0000948  93.7931 266.3169 15.08840547 40671,6917.879,95.438,540.4,539.088,0.0
53978.0,STARLINK-5148,PAYLOAD,2023-06-29 10:14:36,15.08838682,0.0001015,53.2176,317.5386,104.3961,255.7144,6.4537e-05,7.39e-06,0.0,0 STARLINK-5148,1 53978U 22125Q   23180.42680810  .00000739  00000-0  64537-4 0  9995,2 53978  53.2176 317.5386 0001015 104.3961 255.7144 15.08838682 40878,6917.884,95.438,540.452,539.047,0.0
53978.0,STARLINK-5148,PAYLOAD,2023-06-30 14:51:32,15.08843895,9.77e-05,53.2175,312.1859,89.7089,270.4015,0.000145,2.021e-05,0.0,0 STARLINK-5148,1 53978U 22125Q   23181.61912617  .00002021  00000-0  14500-3 0  9990,2 53978  53.2175 312.1859 0000977  89.7089 270.4015 15.08843895 41050,6917.868,95.437,540.409,539.058,0.0
53978.0,STARLINK-5148,PAYLOAD,2023-07-01 08:20:47,15.08836929,9.88e-05,53.2189,308.9158,89.0415,271.0691,7.9382e-05,9.76e-06,0.0,0 STARLINK-5148,1 53978U 22125Q   23182.34777142  .00000976  00000-0  79382-4 0  9990,2 53978  53.2189 308.9158 0000988  89.0415 271.0691 15.08836929 41167,6917.89,95.438,540.438,539.071,0.0
53978.0,STARLINK-5148,PAYLOAD,2023-07-02 14:33:06,15.08842819,9.53e-05,53.218,303.2652,86.406,273.7041,4.2251e-05,3.85e-06,0.0,0 STARLINK-5148,1 53978U 22125Q   23183.60632881  .00000385  00000-0  42251-4 0  9999,2 53978  53.2180 303.2652 0000953  86.4060 273.7041 15.08842819 41358,6917.872,95.437,540.396,539.077,0.0
53978.0,STARLINK-5148,PAYLOAD,2023-07-03 17:34:39,15.08848427,9.37e-05,53.2175,298.2098,88.4773,271.6327,0.00017615,2.517e-05,0.0,0 STARLINK-5148,1 53978U 22125Q   23184.73240290  .00002517  00000-0  17615-3 0  9997,2 53978  53.2175 298.2098 0000937  88.4773 271.6327 15.08848427 41528,6917.855,95.437,540.368,539.071,0.0
53978.0,STARLINK-5148,PAYLOAD,2023-07-04 11:03:54,15.08840291,9e-05,53.2169,294.9392,84.9289,275.1806,8.4482e-05,1.057e-05,0.0,0 STARLINK-5148,1 53978U 22125Q   23185.46105100  .00001057  00000-0  84482-4 0  9993,2 53978  53.2169 294.9392 0000900  84.9289 275.1806 15.08840291 41638,6917.879,95.438,540.367,539.122,0.0
53978.0,STARLINK-5148,PAYLOAD,2023-07-05 15:40:51,15.08842135,9.73e-05,53.2169,289.5865,91.6462,268.4641,6.1887e-05,6.97e-06,0.0,0 STARLINK-5148,1 53978U 22125Q   23186.65336987  .00000697  00000-0  61887-4 0  9997,2 53978  53.2169 289.5865 0000973  91.6462 268.4641 15.08842135 41812,6917.874,95.437,540.412,539.066,0.0
53978.0,STARLINK-5148,PAYLOAD,2023-07-06 07:34:42,15.08835972,8.98e-05,53.2168,286.613,90.0019,270.1076,4.3776e-05,4.09e-06,0.0,0 STARLINK-5148,1 53978U 22125Q   23187.31577397  .00000409  00000-0  43776-4 0  9991,2 53978  53.2168 286.6130 0000898  90.0019 270.1076 15.08835972 41915,6917.893,95.438,540.379,539.136,0.0
53978.0,STARLINK-5148,PAYLOAD,2023-07-07 10:36:16,15.08843668,8.76e-05,53.2177,281.558,98.5984,261.5107,0.00010622,1.403e-05,0.0,0 STARLINK-5148,1 53978U 22125Q   23188.44185243  .00001403  00000-0  10622-3 0  9999,2 53978  53.2177 281.5580 0000876  98.5984 261.5107 15.08843668 42087,6917.869,95.437,540.34,539.128,0.0
53978.0,STARLINK-5148,PAYLOAD,2023-07-08 07:16:17,15.08839657,0.0001078,53.2182,277.6928,84.0552,276.0563,7.4106e-05,8.92e-06,0.0,0 STARLINK-5148,1 53978U 22125Q   23189.30297632  .00000892  00000-0  74106-4 0  9990,2 53978  53.2182 277.6928 0001078  84.0552 276.0563 15.08839657 42216,6917.881,95.438,540.492,539.001,0.0
53978.0,STARLINK-5148,PAYLOAD,2023-07-09 11:53:13,15.08837729,9.29e-05,53.2166,272.3378,103.6748,256.4347,-9.8682e-07,-3.03e-06,0.0,0 STARLINK-5148,1 53978U 22125Q   23190.49529922 -.00000303  00000-0 -98682-6 0  9998,2 53978  53.2166 272.3378 0000929 103.6748 256.4347 15.08837729 42397,6917.887,95.438,540.395,539.11,0.0
53978.0,STARLINK-5148,PAYLOAD,2023-07-10 11:44:00,15.08844003,9.15e-05,53.2162,267.8783,79.172,280.9375,0.00015321,2.152e-05,0.0,0 STARLINK-5148,1 53978U 22125Q   23191.48889286  .00002152  00000-0  15321-3 0  9998,2 53978  53.2162 267.8783 0000915  79.1720 280.9375 15.08844003 42547,6917.868,95.437,540.366,539.1,0.0
53978.0,STARLINK-5148,PAYLOAD,2023-07-10 18:05:32,15.08851672,9.36e-05,53.2166,266.689,79.1968,280.913,0.00015708,2.214e-05,0.0,0 STARLINK-5148,1 53978U 22125Q   23191.75384701  .00002214  00000-0  15708-3 0  9998,2 53978  53.2166 266.6890 0000936  79.1968 280.9130 15.08851672 42587,6917.845,95.437,540.357,539.062,0.0
53978.0,STARLINK-5148,PAYLOAD,2023-07-11 16:20:57,15.08843103,0.000102,53.2162,262.5257,77.9849,282.1257,0.00013007,1.783e-05,0.0,0 STARLINK-5148,1 53978U 22125Q   23192.68121539  .00001783  00000-0  13007-3 0  9999,2 53978  53.2162 262.5257 0001020  77.9849 282.1257 15.08843103 42724,6917.871,95.437,540.442,539.03,0.0
53978.0,STARLINK-5148,PAYLOAD,2023-07-12 11:25:34,15.08839717,8.83e-05,53.2184,258.9604,79.319,280.7901,7.7906e-05,9.52e-06,0.0,0 STARLINK-5148,1 53978U 22125Q   23193.47609912  .00000952  00000-0  77906-4 0  9999,2 53978  53.2184 258.9604 0000883  79.3190 280.7901 15.08839717 42843,6917.881,95.438,540.357,539.135,0.0
53978.0,STARLINK-5148,PAYLOAD,2023-07-13 12:51:45,15.08841205,9.1e-05,53.2165,254.201,85.6576,274.452,3.1573e-05,2.15e-06,0.0,0 STARLINK-5148,1 53978U 22125Q   23194.53593915  .00000215  00000-0  31573-4 0  9994,2 53978  53.2165 254.2010 0000910  85.6576 274.4520 15.08841205 43002,6917.877,95.437,540.371,539.112,0.0
53978.0,STARLINK-5148,PAYLOAD,2023-07-14 20:39:28,15.08838391,0.0001038,53.217,248.2534,86.6701,273.441,8.318e-05,1.036e-05,0.0,0 STARLINK-5148,1 53978U 22125Q   23195.86074243  .00001036  00000-0  83180-4 0  9992,2 53978  53.2170 248.2534 0001038  86.6701 273.4410 15.08838391 43206,6917.885,95.438,540.468,539.032,0.0
53978.0,STARLINK-5148,PAYLOAD,2023-07-16 02:51:48,15.08836468,0.0001125,53.217,242.603,87.24,272.8721,5.7054e-05,6.2e-06,0.0,0 STARLINK-5148,1 53978U 22125Q   23197.11930621  .00000620  00000-0  57054-4 0  9992,2 53978  53.2170 242.6030 0001125  87.2400 272.8721 15.08836468 43396,6917.891,95.438,540.534,538.978,0.0
53978.0,STARLINK-5148,PAYLOAD,2023-07-17 09:04:07,15.08841699,0.0001001,53.2158,236.952,91.0899,269.0207,8.7789e-05,1.11e-05,0.0,0 STARLINK-5148,1 53978U 22125Q   23198.37786347  .00001110  00000-0  87789-4 0  9998,2 53978  53.2158 236.9520 0001001  91.0899 269.0207 15.08841699 43580,6917.875,95.437,540.433,539.048,0.0
53978.0,STARLINK-5148,PAYLOAD,2023-07-18 08:54:54,15.08839013,0.0001014,53.2155,232.4912,91.6084,268.5024,8.2631e-05,1.028e-05,0.0,0 STARLINK-5148,1 53978U 22125Q   23199.37146541  .00001028  00000-0  82631-4 0  9994,2 53978  53.2155 232.4912 0001014  91.6084 268.5024 15.08839013 43734,6917.883,95.438,540.45,539.047,0.0
53978.0,STARLINK-5148,PAYLOAD,2023-07-19 08:45:41,15.08839031,0.0001082,53.216,228.0309,93.2863,266.8253,2.7053e-05,1.43e-06,0.0,0 STARLINK-5148,1 53978U 22125Q   23200.36506749  .00000143  00000-0  27053-4 0  9990,2 53978  53.2160 228.0309 0001082  93.2863 266.8253 15.08839031 43880,6917.883,95.438,540.497,539.0,0.0
53978.0,STARLINK-5148,PAYLOAD,2023-07-21 02:05:43,15.08838872,0.0001099,53.2163,220.2989,93.5853,266.5265,6.5135e-05,7.49e-06,0.0,0 STARLINK-5148,1 53978U 22125Q   23202.08730797  .00000749  00000-0  65135-4 0  9998,2 53978  53.2163 220.2989 0001099  93.5853 266.5265 15.08838872 44143,6917.884,95.438,540.509,538.989,0.0
53978.0,STARLINK-5148,PAYLOAD,2023-07-24 00:02:41,15.0883926,0.000111,53.2156,207.2143,89.6621,270.4499,3.8431e-05,3.24e-06,0.0,0 STARLINK-5148,1 53978U 22125Q   23205.00187050  .00000324  00000-0  38431-4 0  9999,2 53978  53.2156 207.2143 0001110  89.6621 270.4499 15.08839260 44511,6917.883,95.438,540.516,538.98,0.0
53978.0,STARLINK-5148,PAYLOAD,2023-07-25 09:25:47,15.08837966,0.0001108,53.2156,200.9701,87.5494,272.5625,0.00011522,1.546e-05,0.0,0 STARLINK-5148,1 53978U 22125Q   23206.39290975  .00001546  00000-0  11522-3 0  9991,2 53978  53.2156 200.9701 0001108  87.5494 272.5625 15.08837966 44721,6917.887,95.438,540.518,538.985,0.0
53978.0,STARLINK-5148,PAYLOAD,2023-07-26 02:55:01,15.08840392,0.000123,53.2148,197.6968,103.322,256.7909,5.5201e-05,5.91e-06,0.0,0 STARLINK-5148,1 53978U 22125Q   23207.12154958  .00000591  00000-0  55201-4 0  9995,2 53978  53.2148 197.6968 0001230 103.3220 256.7909 15.08840392 44837,6917.879,95.438,540.595,538.893,0.0
53978.0,STARLINK-5148,PAYLOAD,2023-07-26 06:05:48,15.08841258,0.0001161,53.2152,197.103,95.1249,264.9875,6.3845e-05,7.28e-06,0.0,0 STARLINK-5148,1 53978U 22125Q   23207.25402904  .00000728  00000-0  63845-4 0  9991,2 53978  53.2152 197.1030 0001161  95.1249 264.9875 15.08841258 44856,6917.877,95.437,540.545,538.938,0.0
